[{"OBJECT_NAME":"STARLINK-36053","OBJECT_ID":"2025-281AD","EPOCH":"2026-03-09T03:28:44.292576","MEAN_MOTION":15.2756623,"ECCENTRICITY":0.00011853,"INCLINATION":43.0015,"RA_OF_ASC_NODE":346.4233,"ARG_OF_PERICENTER":290.724,"MEAN_ANOMALY":69.3484,"EPHEMERIS_TYPE":0,"CLASSIFICATION_TYPE":"U","NORAD_CAT_ID":66875,"ELEMENT_SET_NO":999,"REV_AT_EPOCH":1604,"BSTAR":0.00083003608,"MEAN_MOTION_DOT":0.00022639,"MEAN_MOTION_DDOT":0},{"OBJECT_NAME":"CZ-6A DEB","OBJECT_ID":"2024-140YZ","EPOCH":"2026-03-09T14:14:13.172928","MEAN_MOTION":14.91044947,"ECCENTRICITY":0.0161166,"INCLINATION":89.0861,"RA_OF_ASC_NODE":285.7767,"ARG_OF_PERICENTER":146.5264,"MEAN_ANOMALY":214.6281,"EPHEMERIS_TYPE":0,"CLASSIFICATION_TYPE":"U","NORAD_CAT_ID":61432,"ELEMENT_SET_NO":999,"REV_AT_EPOCH":8368,"BSTAR":0.0010034,"MEAN_MOTION_DOT":0.0001278,"MEAN_MOTION_DDOT":0}]
